QIANFAN-9               
1 60387U 24140J   25339.94458431  .00000106  00000+0  14566-3 0  9996
2 60387  88.9755 300.0398 0014822 212.6114 147.4123 13.50980020 66412
QIANFAN-10              
1 60388U 24140K   25339.94877498  .00000118  00000+0  16474-3 0  9998
2 60388  88.9766 299.3858 0013936 187.6501 172.4439 13.50980572 66546
QIANFAN-11              
1 60389U 24140L   25339.91177734  .00000117  00000+0  16217-3 0  9996
2 60389  88.9691 299.9820 0012868 211.6182 148.4198 13.50976813 66194
QIANFAN-12              
1 60390U 24140M   25339.93227600  .00000127  00000+0  17849-3 0  9991
2 60390  88.9734 300.0203 0011506 220.2557 139.7743 13.50977603 66325
QIANFAN-13              
1 60391U 24140N   25339.97753991  .00000119  00000+0  16630-3 0  9991
2 60391  88.9747 300.1147 0011277 223.1087 136.9182 13.50978143 66352
QIANFAN-14              
1 60392U 24140P   25339.92806644  .00000123  00000+0  17229-3 0  9991
2 60392  88.9725 300.0189 0014956 224.3397 135.6557 13.50977644 66355
QIANFAN-15              
1 60393U 24140Q   25339.93634999  .00000109  00000+0  15079-3 0  9990
2 60393  88.9749 299.9729 0011080 207.3122 152.7448 13.50976404 66341
QIANFAN-16              
1 60394U 24140R   25339.92414794  .00000127  00000+0  17791-3 0  9992
2 60394  88.9750 300.0940 0012835 228.2659 131.7396 13.50981848 66256
